COMMENT,ORIGINATOR,NORAD_CAT_ID,OBJECT_NAME,OBJECT_TYPE,CLASSIFICATION_TYPE,INTLDES,EPOCH,EPOCH_MICROSECONDS,MEAN_MOTION,ECCENTRICITY,INCLINATION,RA_OF_ASC_NODE,ARG_OF_PERICENTER,MEAN_ANOMALY,EPHEMERIS_TYPE,ELEMENT_SET_NO,REV_AT_EPOCH,BSTAR,MEAN_MOTION_DOT,MEAN_MOTION_DDOT,FILE,TLE_LINE0,TLE_LINE1,TLE_LINE2,OBJECT_ID,OBJECT_NUMBER,SEMIMAJOR_AXIS,PERIOD,APOGEE,PERIGEE,DECAYED
"GENERATED VIA SPACETRACK.ORG API","18 SPCS","48883","SPACEBEE-100","PAYLOAD","U","21059E","2023-09-06 07:51:59","50656","15.37724097","0.0004902","97.6024","28.5463","336.7674","23.3348","0","999","12183","0.0011465","0.00042591","0","3999061","0 SPACEBEE-100","1 48883U 21059E   23249.32776679  .00042591  00000-0  11465-2 0  9995","2 48883  97.6024  28.5463 0004902 336.7674  23.3348 15.37724097121833","2021-059E","48883","6830.978","93.645","456.192","449.495","0"
"GENERATED VIA SPACETRACK.ORG API","18 SPCS","48883","SPACEBEE-100","PAYLOAD","U","21059E","2023-09-06 09:25:41","354400","15.3772736","0.0004897","97.6024","28.6136","336.4622","23.6398","0","999","12184","0.0010508","0.00039014","0","3999158","0 SPACEBEE-100","1 48883U 21059E   23249.39283975  .00039014  00000-0  10508-2 0  9997","2 48883  97.6024  28.6136 0004897 336.4622  23.6398 15.37727360121849","2021-059E","48883","6830.968","93.645","456.179","449.488","0"
"GENERATED VIA SPACETRACK.ORG API","18 SPCS","48883","SPACEBEE-100","PAYLOAD","U","21059E","2023-09-06 20:21:36","983808","15.37770014","0.0004908","97.6024","29.0853","334.9583","25.1422","0","999","12191","0.0012028","0.00044766","0","3999376","0 SPACEBEE-100","1 48883U 21059E   23249.84834472  .00044766  00000-0  12028-2 0  9990","2 48883  97.6024  29.0853 0004908 334.9583  25.1422 15.37770014121919","2021-059E","48883","6830.842","93.642","456.060","449.355","0"
"GENERATED VIA SPACETRACK.ORG API","18 SPCS","48883","SPACEBEE-100","PAYLOAD","U","21059E","2023-09-07 08:51:13","677984","15.37813263","0.0004864","97.6018","29.6238","332.8811","27.2178","0","999","12199","0.00124","0.00046226","0","3999915","0 SPACEBEE-100","1 48883U 21059E   23250.36890831  .00046226  00000-0  12400-2 0  9997","2 48883  97.6018  29.6238 0004864 332.8811  27.2178 15.37813263121990","2021-059E","48883","6830.714","93.639","455.902","449.257","0"
"GENERATED VIA SPACETRACK.ORG API","18 SPCS","48883","SPACEBEE-100","PAYLOAD","U","21059E","2023-09-07 08:51:13","677984","15.37813263","0.0004864","97.6018","29.6238","332.8811","27.2178","0","999","12199","0.00124","0.00046226","0","4000037","0 SPACEBEE-100","1 48883U 21059E   23250.36890831  .00046226  00000-0  12400-2 0  9997","2 48883  97.6018  29.6238 0004864 332.8811  27.2178 15.37813263121990","2021-059E","48883","6830.714","93.639","455.902","449.257","0"
"GENERATED VIA SPACETRACK.ORG API","18 SPCS","48883","SPACEBEE-100","PAYLOAD","U","21059E","2023-09-08 08:16:41","527776","15.37897999","0.0004968","97.6018","30.6342","328.5548","31.5398","0","999","12214","0.0013076","0.00048902","0","4000854","0 SPACEBEE-100","1 48883U 21059E   23251.34492509  .00048902  00000-0  13076-2 0  9999","2 48883  97.6018  30.6342 0004968 328.5548  31.5398 15.37897999122140","2021-059E","48883","6830.463","93.634","455.722","448.935","0"
"GENERATED VIA SPACETRACK.ORG API","18 SPCS","48883","SPACEBEE-100","PAYLOAD","U","21059E","2023-09-08 20:46:14","511936","15.37939687","0.0004985","97.602","31.1731","325.9789","34.1135","0","999","12222","0.0011899","0.00044528","0","4001154","0 SPACEBEE-100","1 48883U 21059E   23251.86544574  .00044528  00000-0  11899-2 0  9997","2 48883  97.6020  31.1731 0004985 325.9789  34.1135 15.37939687122226","2021-059E","48883","6830.340","93.632","455.610","448.800","0"
"GENERATED VIA SPACETRACK.ORG API","18 SPCS","48883","SPACEBEE-100","PAYLOAD","U","21059E","2023-09-08 22:19:56","45856","15.37944518","0.0004954","97.6019","31.2404","325.684","34.4084","0","999","12223","0.0011763","0.00044021","0","4001359","0 SPACEBEE-100","1 48883U 21059E   23251.93050979  .00044021  00000-0  11763-2 0  9994","2 48883  97.6019  31.2404 0004954 325.6840  34.4084 15.37944518122239","2021-059E","48883","6830.325","93.631","455.574","448.807","0"
"GENERATED VIA SPACETRACK.ORG API","18 SPCS","48883","SPACEBEE-100","PAYLOAD","U","21059E","2023-09-09 09:15:46","156032","15.37985581","0.0004962","97.6018","31.7118","324.3627","35.7285","0","999","12230","0.001222","0.00045807","0","4001770","0 SPACEBEE-100","1 48883U 21059E   23252.38595088  .00045807  00000-0  12220-2 0  9991","2 48883  97.6018  31.7118 0004962 324.3627  35.7285 15.37985581122303","2021-059E","48883","6830.204","93.629","455.458","448.680","0"
"GENERATED VIA SPACETRACK.ORG API","18 SPCS","48883","SPACEBEE-100","PAYLOAD","U","21059E","2023-09-10 08:41:04","192512","15.3807453","0.0005057","97.602","32.7223","321.1638","38.9242","0","999","12245","0.0011937","0.00044868","0","4002512","0 SPACEBEE-100","1 48883U 21059E   23253.36185408  .00044868  00000-0  11937-2 0  9991","2 48883  97.6020  32.7223 0005057 321.1638  38.9242 15.38074530122455","2021-059E","48883","6829.941","93.624","455.259","448.352","0"
"GENERATED VIA SPACETRACK.ORG API","18 SPCS","48883","SPACEBEE-100","PAYLOAD","U","21059E","2023-09-10 08:41:04","192512","15.3807453","0.0005057","97.602","32.7223","321.1638","38.9242","0","999","12245","0.0011937","0.00044868","0","4002632","0 SPACEBEE-100","1 48883U 21059E   23253.36185408  .00044868  00000-0  11937-2 0  9991","2 48883  97.6020  32.7223 0005057 321.1638  38.9242 15.38074530122455","2021-059E","48883","6829.941","93.624","455.259","448.352","0"
"GENERATED VIA SPACETRACK.ORG API","18 SPCS","48883","SPACEBEE-100","PAYLOAD","U","21059E","2023-09-11 08:06:17","412192","15.3816414","0.0005069","97.602","33.7326","317.9744","42.1111","0","999","12260","0.001259","0.00047481","0","4003535","0 SPACEBEE-100","1 48883U 21059E   23254.33770153  .00047481  00000-0  12590-2 0  9996","2 48883  97.6020  33.7326 0005069 317.9744  42.1111 15.38164140122600","2021-059E","48883","6829.675","93.618","455.002","448.078","0"
"GENERATED VIA SPACETRACK.ORG API","18 SPCS","48883","SPACEBEE-100","PAYLOAD","U","21059E","2023-09-11 20:35:42","434592","15.38214724","0.0005072","97.6023","34.2716","316.1931","43.891","0","999","12268","0.0013078","0.00049418","0","4004006","0 SPACEBEE-100","1 48883U 21059E   23254.85813003  .00049418  00000-0  13078-2 0  9999","2 48883  97.6023  34.2716 0005072 316.1931  43.8910 15.38214724122682","2021-059E","48883","6829.526","93.615","454.854","447.927","0"
"GENERATED VIA SPACETRACK.ORG API","18 SPCS","48883","SPACEBEE-100","PAYLOAD","U","21059E","2023-09-12 09:05:05","917344","15.38267423","0.0005078","97.6022","34.8107","314.3677","45.715","0","999","12276","0.0013569","0.00051378","0","4004425","0 SPACEBEE-100","1 48883U 21059E   23255.37854071  .00051378  00000-0  13569-2 0  9990","2 48883  97.6022  34.8107 0005078 314.3677  45.7150 15.38267423122764","2021-059E","48883","6829.370","93.612","454.702","447.767","0"
"GENERATED VIA SPACETRACK.ORG API","18 SPCS","48883","SPACEBEE-100","PAYLOAD","U","21059E","2023-09-12 21:34:27","667776","15.38338176","0.0005102","97.6023","35.3498","312.3587","47.7225","0","999","12284","0.0017946","0.00068285","0","4004701","0 SPACEBEE-100","1 48883U 21059E   23255.89893134  .00068285  00000-0  17946-2 0  9998","2 48883  97.6023  35.3498 0005102 312.3587  47.7225 15.38338176122848","2021-059E","48883","6829.160","93.608","454.509","447.541","0"
"GENERATED VIA SPACETRACK.ORG API","18 SPCS","48883","SPACEBEE-100","PAYLOAD","U","21059E","2023-09-12 23:08:07","783008","15.38343552","0.0005167","97.6022","35.4172","312.2002","47.8804","0","999","12285","0.0018616","0.00070875","0","4004888","0 SPACEBEE-100","1 48883U 21059E   23255.96397897  .00070875  00000-0  18616-2 0  9994","2 48883  97.6022  35.4172 0005167 312.2002  47.8804 15.38343552122858","2021-059E","48883","6829.144","93.607","454.538","447.481","0"
"GENERATED VIA SPACETRACK.ORG API","18 SPCS","48883","SPACEBEE-100","PAYLOAD","U","21059E","2023-09-13 08:30:07","549920","15.38399985","0.0005131","97.6025","35.8212","310.073","50.0064","0","999","12291","0.0018505","0.00070578","0","4005353","0 SPACEBEE-100","1 48883U 21059E   23256.35425405  .00070578  00000-0  18505-2 0  9992","2 48883  97.6025  35.8212 0005131 310.0730  50.0064 15.38399985122917","2021-059E","48883","6828.977","93.604","454.346","447.338","0"
"GENERATED VIA SPACETRACK.ORG API","18 SPCS","48883","SPACEBEE-100","PAYLOAD","U","21059E","2023-09-13 20:59:25","603296","15.38455834","0.0005176","97.6027","36.3608","309.1563","50.9221","0","999","12299","0.0014643","0.00055825","0","4005648","0 SPACEBEE-100","1 48883U 21059E   23256.87460189  .00055825  00000-0  14643-2 0  9994","2 48883  97.6027  36.3608 0005176 309.1563  50.9221 15.38455834122994","2021-059E","48883","6828.812","93.600","454.212","447.142","0"
"GENERATED VIA SPACETRACK.ORG API","18 SPCS","48883","SPACEBEE-100","PAYLOAD","U","21059E","2023-09-13 22:33:05","225184","15.38463546","0.0005172","97.6026","36.4281","308.6296","51.4485","0","999","12300","0.0014339","0.00054669","0","4005845","0 SPACEBEE-100","1 48883U 21059E   23256.93964381  .00054669  00000-0  14339-2 0  9991","2 48883  97.6026  36.4281 0005172 308.6296  51.4485 15.38463546123004","2021-059E","48883","6828.789","93.600","454.186","447.122","0"
"GENERATED VIA SPACETRACK.ORG API","18 SPCS","48883","SPACEBEE-100","PAYLOAD","U","21059E","2023-09-14 09:28:41","883744","15.38517825","0.0005099","97.6029","36.8997","306.5622","53.5153","0","999","12307","0.0014064","0.00053707","0","4006374","0 SPACEBEE-100","1 48883U 21059E   23257.39492921  .00053707  00000-0  14064-2 0  9995","2 48883  97.6029  36.8997 0005099 306.5622  53.5153 15.38517825123075","2021-059E","48883","6828.629","93.597","453.975","447.012","0"
